[{"OBJECT_NAME":"ONEWEB-0207","OBJECT_ID":"2021-031AJ","EPOCH":"2026-06-11T02:07:50.035584","MEAN_MOTION":13.14502666,"ECCENTRICITY":0.0002189,"INCLINATION":87.8965,"RA_OF_ASC_NODE":290.9142,"ARG_OF_PERICENTER":100.7332,"MEAN_ANOMALY":259.4044,"EPHEMERIS_TYPE":0,"CLASSIFICATION_TYPE":"U","NORAD_CAT_ID":48242,"ELEMENT_SET_NO":999,"REV_AT_EPOCH":24749,"BSTAR":-0.00037662000000000004,"MEAN_MOTION_DOT":-1.27e-06,"MEAN_MOTION_DDOT":0.0},{"OBJECT_NAME":"ONEWEB-0208","OBJECT_ID":"2021-031AK","EPOCH":"2026-06-10T22:02:21.526944","MEAN_MOTION":13.14502967,"ECCENTRICITY":0.0001817,"INCLINATION":87.8962,"RA_OF_ASC_NODE":290.9545,"ARG_OF_PERICENTER":111.4472,"MEAN_ANOMALY":248.6851,"EPHEMERIS_TYPE":0,"CLASSIFICATION_TYPE":"U","NORAD_CAT_ID":48243,"ELEMENT_SET_NO":999,"REV_AT_EPOCH":24748,"BSTAR":-0.00055155,"MEAN_MOTION_DOT":-1.92e-06,"MEAN_MOTION_DDOT":0.0},{"OBJECT_NAME":"ONEWEB-0200","OBJECT_ID":"2021-031AL","EPOCH":"2026-06-11T02:38:39.616800","MEAN_MOTION":13.14502293,"ECCENTRICITY":0.0001938,"INCLINATION":87.8965,"RA_OF_ASC_NODE":290.903,"ARG_OF_PERICENTER":103.3847,"MEAN_ANOMALY":256.7499,"EPHEMERIS_TYPE":0,"CLASSIFICATION_TYPE":"U","NORAD_CAT_ID":48244,"ELEMENT_SET_NO":999,"REV_AT_EPOCH":24743,"BSTAR":0.00055755,"MEAN_MOTION_DOT":2.2e-06,"MEAN_MOTION_DDOT":0.0},{"OBJECT_NAME":"ONEWEB-0217","OBJECT_ID":"2021-031AM","EPOCH":"2026-06-11T01:11:53.537280","MEAN_MOTION":13.14502034,"ECCENTRICITY":0.0001879,"INCLINATION":87.8967,"RA_OF_ASC_NODE":290.9196,"ARG_OF_PERICENTER":111.1135,"MEAN_ANOMALY":249.0196,"EPHEMERIS_TYPE":0,"CLASSIFICATION_TYPE":"U","NORAD_CAT_ID":48245,"ELEMENT_SET_NO":999,"REV_AT_EPOCH":24737,"BSTAR":0.00030739,"MEAN_MOTION_DOT":1.27e-06,"MEAN_MOTION_DDOT":0.0},{"OBJECT_NAME":"ONEWEB-0211","OBJECT_ID":"2021-045A","EPOCH":"2026-06-11T04:26:55.733856","MEAN_MOTION":13.16196555,"ECCENTRICITY":0.0001703,"INCLINATION":87.9005,"RA_OF_ASC_NODE":260.2784,"ARG_OF_PERICENTER":121.7943,"MEAN_ANOMALY":238.3354,"EPHEMERIS_TYPE":0,"CLASSIFICATION_TYPE":"U","NORAD_CAT_ID":48767,"ELEMENT_SET_NO":999,"REV_AT_EPOCH":24365,"BSTAR":0.00042249999999999997,"MEAN_MOTION_DOT":1.73e-06,"MEAN_MOTION_DDOT":0.0},{"OBJECT_NAME":"ONEWEB-0223","OBJECT_ID":"2021-045B","EPOCH":"2026-06-10T19:18:24.570720","MEAN_MOTION":13.15542107,"ECCENTRICITY":0.0001581,"INCLINATION":87.901,"RA_OF_ASC_NODE":260.4611,"ARG_OF_PERICENTER":108.2574,"MEAN_ANOMALY":251.8728,"EPHEMERIS_TYPE":0,"CLASSIFICATION_TYPE":"U","NORAD_CAT_ID":48768,"ELEMENT_SET_NO":999,"REV_AT_EPOCH":24356,"BSTAR":-0.00042609,"MEAN_MOTION_DOT":-1.48e-06,"MEAN_MOTION_DDOT":0.0},{"OBJECT_NAME":"ONEWEB-0230","OBJECT_ID":"2021-045C","EPOCH":"2026-06-11T05:34:28.492608","MEAN_MOTION":13.15548037,"ECCENTRICITY":0.0002052,"INCLINATION":87.8999,"RA_OF_ASC_NODE":260.3901,"ARG_OF_PERICENTER":96.5219,"MEAN_ANOMALY":263.6145,"EPHEMERIS_TYPE":0,"CLASSIFICATION_TYPE":"U","NORAD_CAT_ID":48769,"ELEMENT_SET_NO":999,"REV_AT_EPOCH":24388,"BSTAR":-0.00020499,"MEAN_MOTION_DOT":-6.4e-07,"MEAN_MOTION_DDOT":0.0},{"OBJECT_NAME":"ONEWEB-0237","OBJECT_ID":"2021-045D","EPOCH":"2026-06-11T05:18:28.667232","MEAN_MOTION":13.15547194,"ECCENTRICITY":0.0001702,"INCLINATION":87.9001,"RA_OF_ASC_NODE":260.3942,"ARG_OF_PERICENTER":100.8738,"MEAN_ANOMALY":259.2584,"EPHEMERIS_TYPE":0,"CLASSIFICATION_TYPE":"U","NORAD_CAT_ID":48770,"ELEMENT_SET_NO":999,"REV_AT_EPOCH":24360,"BSTAR":-0.00015261,"MEAN_MOTION_DOT":-4.5e-07,"MEAN_MOTION_DDOT":0.0},{"OBJECT_NAME":"ONEWEB-0235","OBJECT_ID":"2021-045E","EPOCH":"2026-06-11T04:41:59.959104","MEAN_MOTION":13.15548357,"ECCENTRICITY":0.0001547,"INCLINATION":87.901,"RA_OF_ASC_NODE":260.3842,"ARG_OF_PERICENTER":105.4048,"MEAN_ANOMALY":254.7254,"EPHEMERIS_TYPE":0,"CLASSIFICATION_TYPE":"U","NORAD_CAT_ID":48771,"ELEMENT_SET_NO":999,"REV_AT_EPOCH":24359,"BSTAR":0.00031593,"MEAN_MOTION_DOT":1.32e-06,"MEAN_MOTION_DDOT":0.0},{"OBJECT_NAME":"ONEWEB-0242","OBJECT_ID":"2021-045F","EPOCH":"2026-06-11T04:32:50.788608","MEAN_MOTION":13.15553867,"ECCENTRICITY":0.0001848,"INCLINATION":87.9011,"RA_OF_ASC_NODE":260.3823,"ARG_OF_PERICENTER":96.6913,"MEAN_ANOMALY":263.4427,"EPHEMERIS_TYPE":0,"CLASSIFICATION_TYPE":"U","NORAD_CAT_ID":48772,"ELEMENT_SET_NO":999,"REV_AT_EPOCH":24363,"BSTAR":-0.0024726,"MEAN_MOTION_DOT":-9.18e-06,"MEAN_MOTION_DDOT":0.0},{"OBJECT_NAME":"ONEWEB-0241","OBJECT_ID":"2021-045G","EPOCH":"2026-06-11T06:04:08.854464","MEAN_MOTION":13.15549255,"ECCENTRICITY":0.0001736,"INCLINATION":87.8997,"RA_OF_ASC_NODE":260.3886,"ARG_OF_PERICENTER":112.7433,"MEAN_ANOMALY":247.3881,"EPHEMERIS_TYPE":0,"CLASSIFICATION_TYPE":"U","NORAD_CAT_ID":48773,"ELEMENT_SET_NO":999,"REV_AT_EPOCH":24355,"BSTAR":0.00045754,"MEAN_MOTION_DOT":1.85e-06,"MEAN_MOTION_DDOT":0.0},{"OBJECT_NAME":"ONEWEB-0243","OBJECT_ID":"2021-045H","EPOCH":"2026-06-11T05:00:14.832864","MEAN_MOTION":13.15548813,"ECCENTRICITY":0.0001528,"INCLINATION":87.9001,"RA_OF_ASC_NODE":260.4096,"ARG_OF_PERICENTER":90.0828,"MEAN_ANOMALY":270.0478,"EPHEMERIS_TYPE":0,"CLASSIFICATION_TYPE":"U","NORAD_CAT_ID":48774,"ELEMENT_SET_NO":999,"REV_AT_EPOCH":24357,"BSTAR":-4.7694e-05,"MEAN_MOTION_DOT":-5e-08,"MEAN_MOTION_DDOT":0.0},{"OBJECT_NAME":"ONEWEB-0222","OBJECT_ID":"2021-045J","EPOCH":"2026-06-10T23:07:43.315392","MEAN_MOTION":13.15548633,"ECCENTRICITY":0.0001769,"INCLINATION":87.9008,"RA_OF_ASC_NODE":260.4255,"ARG_OF_PERICENTER":105.6849,"MEAN_ANOMALY":254.4476,"EPHEMERIS_TYPE":0,"CLASSIFICATION_TYPE":"U","NORAD_CAT_ID":48775,"ELEMENT_SET_NO":999,"REV_AT_EPOCH":24358,"BSTAR":0.00025812000000000003,"MEAN_MOTION_DOT":1.1e-06,"MEAN_MOTION_DDOT":0.0},{"OBJECT_NAME":"ONEWEB-0244","OBJECT_ID":"2021-045K","EPOCH":"2026-06-11T05:13:56.318880","MEAN_MOTION":13.15548463,"ECCENTRICITY":0.0001833,"INCLINATION":87.9015,"RA_OF_ASC_NODE":260.3691,"ARG_OF_PERICENTER":100.6842,"MEAN_ANOMALY":259.4495,"EPHEMERIS_TYPE":0,"CLASSIFICATION_TYPE":"U","NORAD_CAT_ID":48776,"ELEMENT_SET_NO":999,"REV_AT_EPOCH":24418,"BSTAR":-0.00022399,"MEAN_MOTION_DOT":-7.2e-07,"MEAN_MOTION_DDOT":0.0},{"OBJECT_NAME":"ONEWEB-0247","OBJECT_ID":"2021-045L","EPOCH":"2026-06-11T05:09:21.591072","MEAN_MOTION":13.15547608,"ECCENTRICITY":0.000114,"INCLINATION":87.9,"RA_OF_ASC_NODE":260.4027,"ARG_OF_PERICENTER":95.1523,"MEAN_ANOMALY":264.9738,"EPHEMERIS_TYPE":0,"CLASSIFICATION_TYPE":"U","NORAD_CAT_ID":48777,"ELEMENT_SET_NO":999,"REV_AT_EPOCH":24362,"BSTAR":-0.00013250000000000002,"MEAN_MOTION_DOT":-3.7e-07,"MEAN_MOTION_DDOT":0.0},{"OBJECT_NAME":"ONEWEB-0245","OBJECT_ID":"2021-045M","EPOCH":"2026-06-11T05:02:31.007904","MEAN_MOTION":13.15547684,"ECCENTRICITY":0.0001885,"INCLINATION":87.9009,"RA_OF_ASC_NODE":260.3823,"ARG_OF_PERICENTER":105.8099,"MEAN_ANOMALY":254.3239,"EPHEMERIS_TYPE":0,"CLASSIFICATION_TYPE":"U","NORAD_CAT_ID":48778,"ELEMENT_SET_NO":999,"REV_AT_EPOCH":24359,"BSTAR":-0.00010589,"MEAN_MOTION_DOT":-2.7e-07,"MEAN_MOTION_DDOT":0.0}]