1 48242U 21031AJ 26162.08877356 -.00000127 00000+0 -37662-3 0 9996 
2 48242 87.8965 290.9142 0002189 100.7332 259.4044 13.14502666247496 
1 48243U 21031AK 26161.91830471 -.00000192 00000+0 -55155-3 0 9994 
2 48243 87.8962 290.9545 0001817 111.4472 248.6851 13.14502967247481 
1 48244U 21031AL 26162.11018075 .00000220 00000+0 55755-3 0 9992 
2 48244 87.8965 290.9030 0001938 103.3847 256.7499 13.14502293247439 
1 48245U 21031AM 26162.04992520 .00000127 00000+0 30739-3 0 9992 
2 48245 87.8967 290.9196 0001879 111.1135 249.0196 13.14502034247371 
1 48767U 21045A 26162.18536729 .00000173 00000+0 42250-3 0 9998 
2 48767 87.9005 260.2784 0001703 121.7943 238.3354 13.16196555243650 
1 48768U 21045B 26161.80445105 -.00000148 00000+0 -42609-3 0 9996 
2 48768 87.9010 260.4611 0001581 108.2574 251.8728 13.15542107243564 
1 48769U 21045C 26162.23227422 -.00000064 00000+0 -20499-3 0 9995 
2 48769 87.8999 260.3901 0002052 96.5219 263.6145 13.15548037243887 
1 48770U 21045D 26162.22116513 -.00000045 00000+0 -15261-3 0 9994 
2 48770 87.9001 260.3942 0001702 100.8738 259.2584 13.15547194243606 
1 48771U 21045E 26162.19583286 .00000132 00000+0 31593-3 0 9997 
2 48771 87.9010 260.3842 0001547 105.4048 254.7254 13.15548357243592 
1 48772U 21045F 26162.18947672 -.00000918 00000+0 -24726-2 0 9993 
2 48772 87.9011 260.3823 0001848 96.6913 263.4427 13.15553867243635 
1 48773U 21045G 26162.25288026 .00000185 00000+0 45754-3 0 9992 
2 48773 87.8997 260.3886 0001736 112.7433 247.3881 13.15549255243552 
1 48774U 21045H 26162.20850501 -.00000005 00000+0 -47694-4 0 9990 
2 48774 87.9001 260.4096 0001528 90.0828 270.0478 13.15548813243575 
1 48775U 21045J 26161.96369578 .00000110 00000+0 25812-3 0 9994 
2 48775 87.9008 260.4255 0001769 105.6849 254.4476 13.15548633243588 
1 48776U 21045K 26162.21801295 -.00000072 00000+0 -22399-3 0 9997 
2 48776 87.9015 260.3691 0001833 100.6842 259.4495 13.15548463244184 
1 48777U 21045L 26162.21483323 -.00000037 00000+0 -13250-3 0 9993 
2 48777 87.9000 260.4027 0001140 95.1523 264.9738 13.15547608243627 
1 48778U 21045M 26162.21008111 -.00000027 00000+0 -10589-3 0 9993 
2 48778 87.9009 260.3823 0001885 105.8099 254.3239 13.15547684243592 
